[
  {
    "OBJECT_ID": "1961-015B",
    "OBJECT_NAME": "SOLRAD 3/INJUN 1",
    "NORAD_CAT_ID": "117",
    "OBJECT_TYPE": "PAYLOAD",
    "PERIOD": "103.612",
    "INCLINATION": "66.8118",
    "APOGEE": "991.127",
    "PERIGEE": "867.563",
    "ECCENTRICITY": "0.0084546",
    "MEAN_MOTION": "13.89796592",
    "TLE_LINE1": "1   117U 61015B   16238.94574492 -.00000065 +00000-0 +90958-5 0  9994",
    "TLE_LINE2": "2   117 066.8118 094.3385 0084546 281.4929 077.6664 13.89796592796259"
  },
  {
    "OBJECT_ID": "1961-015C",
    "OBJECT_NAME": "THOR ABLESTAR R/B",
    "NORAD_CAT_ID": "118",
    "OBJECT_TYPE": "ROCKET BODY",
    "PERIOD": "102.745",
    "INCLINATION": "66.766",
    "APOGEE": "954.105",
    "PERIGEE": "822.972",
    "ECCENTRICITY": "0.0090229",
    "MEAN_MOTION": "14.01519847",
    "TLE_LINE1": "1 00118U 61015C   16239.55072266 -.00000018  00000-0  39022-4 0  9997",
    "TLE_LINE2": "2 00118  66.7660 342.3671 0090229 271.7957  87.2794 14.01519847814627"
  },
  {
    "OBJECT_ID": "1961-015D",
    "OBJECT_NAME": "THOR ABLESTAR DEB",
    "NORAD_CAT_ID": "119",
    "OBJECT_TYPE": "DEBRIS",
    "PERIOD": "101.206",
    "INCLINATION": "66.7292",
    "APOGEE": "894.499",
    "PERIGEE": "737.086",
    "ECCENTRICITY": "0.0109407",
    "MEAN_MOTION": "14.22832022",
    "TLE_LINE1": "1   119U 61015D   16238.57181914 +.00000028 +00000-0 +47150-4 0  9991",
    "TLE_LINE2": "2   119 066.7292 300.1335 0109407 324.6983 034.6899 14.22832022848630"
  },
  {
    "OBJECT_ID": "1961-015E",
    "OBJECT_NAME": "THOR ABLESTAR DEB",
    "NORAD_CAT_ID": "120",
    "OBJECT_TYPE": "DEBRIS",
    "PERIOD": "101.067",
    "INCLINATION": "66.7075",
    "APOGEE": "888.848",
    "PERIGEE": "729.552",
    "ECCENTRICITY": "0.0110817",
    "MEAN_MOTION": "14.24790052",
    "TLE_LINE1": "1 00120U 61015E   16238.96343324 -.00000142  00000-0 -23027-4 0  9997",
    "TLE_LINE2": "2 00120  66.7075  23.4624 0110817  65.7811 295.4818 14.24790052837945"
  },
  {
    "OBJECT_ID": "1961-015F",
    "OBJECT_NAME": "THOR ABLESTAR DEB",
    "NORAD_CAT_ID": "121",
    "OBJECT_TYPE": "DEBRIS",
    "PERIOD": "102.885",
    "INCLINATION": "66.748",
    "APOGEE": "964.565",
    "PERIGEE": "825.714",
    "ECCENTRICITY": "0.0095453",
    "MEAN_MOTION": "13.99612243",
    "TLE_LINE1": "1   121U 61015F   16238.80450415 -.00000045 +00000-0 +22528-4 0  9997",
    "TLE_LINE2": "2   121 066.7480 300.4442 0095453 341.6971 018.0684 13.99612243824967"
  },
  {
    "OBJECT_ID": "1961-015G",
    "OBJECT_NAME": "THOR ABLESTAR DEB",
    "NORAD_CAT_ID": "122",
    "OBJECT_TYPE": "DEBRIS",
    "PERIOD": "98.102",
    "INCLINATION": "66.7516",
    "APOGEE": "717.242",
    "PERIGEE": "618.652",
    "ECCENTRICITY": "0.0069961",
    "MEAN_MOTION": "14.67848307",
    "TLE_LINE1": "1   122U 61015G   16238.95829348 +.00000407 +00000-0 +87695-4 0  9996",
    "TLE_LINE2": "2   122 066.7516 152.0582 0069961 151.2355 209.2650 14.67848307866073"
  },
  {
    "OBJECT_ID": "1961-015H",
    "OBJECT_NAME": "THOR ABLESTAR DEB",
    "NORAD_CAT_ID": "123",
    "OBJECT_TYPE": "DEBRIS",
    "PERIOD": "100.233",
    "INCLINATION": "66.6841",
    "APOGEE": "851.956",
    "PERIGEE": "687.252",
    "ECCENTRICITY": "0.0115214",
    "MEAN_MOTION": "14.3664577",
    "TLE_LINE1": "1   123U 61015H   16238.90494950 +.00000106 +00000-0 +62293-4 0  9992",
    "TLE_LINE2": "2   123 066.6841 208.2888 0115214 001.4875 358.6545 14.36645770864517"
  },
  {
    "OBJECT_ID": "1961-015J",
    "OBJECT_NAME": "THOR ABLESTAR DEB",
    "NORAD_CAT_ID": "124",
    "OBJECT_TYPE": "DEBRIS",
    "PERIOD": "100.707",
    "INCLINATION": "66.545",
    "APOGEE": "841.345",
    "PERIGEE": "742.872",
    "ECCENTRICITY": "0.0068668",
    "MEAN_MOTION": "14.2988738",
    "TLE_LINE1": "1 00124U 61015J   16238.70025983  .00000138  00000-0  85215-4 0  9991",
    "TLE_LINE2": "2 00124  66.5450 338.9856 0068668  93.9749 266.9202 14.29887380846603"
  },
  {
    "OBJECT_ID": "1961-015K",
    "OBJECT_NAME": "THOR ABLESTAR DEB",
    "NORAD_CAT_ID": "125",
    "OBJECT_TYPE": "DEBRIS",
    "PERIOD": "102.475",
    "INCLINATION": "66.8747",
    "APOGEE": "929.463",
    "PERIGEE": "822.112",
    "ECCENTRICITY": "0.0073995",
    "MEAN_MOTION": "14.05216853",
    "TLE_LINE1": "1   125U 61015K   16238.95544408 +.00000071 +00000-0 +90453-4 0  9993",
    "TLE_LINE2": "2   125 066.8747 231.8516 0073995 169.3304 190.9375 14.05216853813723"
  },
  {
    "OBJECT_ID": "1961-015L",
    "OBJECT_NAME": "THOR ABLESTAR DEB",
    "NORAD_CAT_ID": "126",
    "OBJECT_TYPE": "DEBRIS",
    "PERIOD": "100.315",
    "INCLINATION": "66.7117",
    "APOGEE": "820.983",
    "PERIGEE": "725.985",
    "ECCENTRICITY": "0.0066417",
    "MEAN_MOTION": "14.35476728",
    "TLE_LINE1": "1 00126U 61015L   16239.34058644  .00000286  00000-0  12631-3 0  9999",
    "TLE_LINE2": "2 00126  66.7117 220.3626 0066417   3.6539 356.5033 14.35476728850049"
  },
  {
    "OBJECT_ID": "1961-015M",
    "OBJECT_NAME": "THOR ABLESTAR DEB",
    "NORAD_CAT_ID": "127",
    "OBJECT_TYPE": "DEBRIS",
    "PERIOD": "100.144",
    "INCLINATION": "66.8306",
    "APOGEE": "822.420",
    "PERIGEE": "708.372",
    "ECCENTRICITY": "0.0079826",
    "MEAN_MOTION": "14.37915459",
    "TLE_LINE1": "1   127U 61015M   16238.94611555 +.00000268 +00000-0 +11356-3 0  9994",
    "TLE_LINE2": "2   127 066.8306 069.8780 0079826 227.4371 131.9977 14.37915459850825"
  },
  {
    "OBJECT_ID": "1961-015N",
    "OBJECT_NAME": "THOR ABLESTAR DEB",
    "NORAD_CAT_ID": "128",
    "OBJECT_TYPE": "DEBRIS",
    "PERIOD": "102.778",
    "INCLINATION": "66.6754",
    "APOGEE": "963.968",
    "PERIGEE": "816.231",
    "ECCENTRICITY": "0.0101632",
    "MEAN_MOTION": "14.01068301",
    "TLE_LINE1": "1   128U 61015N   16238.88867608 -.00000053 +00000-0 +17020-4 0  9998",
    "TLE_LINE2": "2   128 066.6754 128.1392 0101632 254.8087 104.1739 14.01068301813135"
  },
  {
    "OBJECT_ID": "1961-015Q",
    "OBJECT_NAME": "THOR ABLESTAR DEB",
    "NORAD_CAT_ID": "130",
    "OBJECT_TYPE": "DEBRIS",
    "PERIOD": "102.960",
    "INCLINATION": "66.7712",
    "APOGEE": "966.267",
    "PERIGEE": "831.034",
    "ECCENTRICITY": "0.0092921",
    "MEAN_MOTION": "13.9859938",
    "TLE_LINE1": "1 00130U 61015Q   16239.17626723 -.00000047  00000-0  21543-4 0  9993",
    "TLE_LINE2": "2 00130  66.7712 127.0493 0092921 281.6585  77.4080 13.98599380810986"
  },
  {
    "OBJECT_ID": "1961-015R",
    "OBJECT_NAME": "THOR ABLESTAR DEB",
    "NORAD_CAT_ID": "131",
    "OBJECT_TYPE": "DEBRIS",
    "PERIOD": "102.818",
    "INCLINATION": "66.7365",
    "APOGEE": "947.369",
    "PERIGEE": "836.613",
    "ECCENTRICITY": "0.0076172",
    "MEAN_MOTION": "14.00521496",
    "TLE_LINE1": "1 00131U 61015R   16239.51545916 -.00000039  00000-0  26300-4 0  9993",
    "TLE_LINE2": "2 00131  66.7365  21.3016 0076172  41.5932 319.0910 14.00521496802241"
  },
  {
    "OBJECT_ID": "1961-015S",
    "OBJECT_NAME": "THOR ABLESTAR DEB",
    "NORAD_CAT_ID": "132",
    "OBJECT_TYPE": "DEBRIS",
    "PERIOD": "103.281",
    "INCLINATION": "66.6602",
    "APOGEE": "963.064",
    "PERIGEE": "864.498",
    "ECCENTRICITY": "0.0067586",
    "MEAN_MOTION": "13.94248723",
    "TLE_LINE1": "1   132U 61015S   16238.95000704 -.00000056 +00000-0 +16763-4 0  9993",
    "TLE_LINE2": "2   132 066.6602 181.5185 0067586 085.4312 275.4484 13.94248723804221"
  },
  {
    "OBJECT_ID": "1961-015T",
    "OBJECT_NAME": "THOR ABLESTAR DEB",
    "NORAD_CAT_ID": "133",
    "OBJECT_TYPE": "DEBRIS",
    "PERIOD": "101.581",
    "INCLINATION": "67.1151",
    "APOGEE": "869.021",
    "PERIGEE": "798.047",
    "ECCENTRICITY": "0.0049208",
    "MEAN_MOTION": "14.17584767",
    "TLE_LINE1": "1 00133U 61015T   16239.15323312 -.00000096  00000-0 -79228-5 0  9991",
    "TLE_LINE2": "2 00133  67.1151 268.7946 0049208 114.4832 246.1406 14.17584767825691"
  },
  {
    "OBJECT_ID": "1961-015U",
    "OBJECT_NAME": "THOR ABLESTAR DEB",
    "NORAD_CAT_ID": "134",
    "OBJECT_TYPE": "DEBRIS",
    "PERIOD": "103.101",
    "INCLINATION": "66.8789",
    "APOGEE": "970.118",
    "PERIGEE": "840.467",
    "ECCENTRICITY": "0.0089004",
    "MEAN_MOTION": "13.96686732",
    "TLE_LINE1": "1 00134U 61015U   16239.50338387  .00000004  00000-0  56698-4 0  9991",
    "TLE_LINE2": "2 00134  66.8789 214.5806 0089004 254.9488 104.1733 13.96686732805868"
  },
  {
    "OBJECT_ID": "1961-015W",
    "OBJECT_NAME": "THOR ABLESTAR DEB",
    "NORAD_CAT_ID": "136",
    "OBJECT_TYPE": "DEBRIS",
    "PERIOD": "100.507",
    "INCLINATION": "67.5302",
    "APOGEE": "816.212",
    "PERIGEE": "749.047",
    "ECCENTRICITY": "0.0046898",
    "MEAN_MOTION": "14.32727558",
    "TLE_LINE1": "1   136U 61015W   16238.85529142 +.00000151 +00000-0 +83566-4 0  9998",
    "TLE_LINE2": "2   136 067.5302 052.4799 0046898 032.7225 327.6771 14.32727558842761"
  },
  {
    "OBJECT_ID": "1961-015Y",
    "OBJECT_NAME": "THOR ABLESTAR DEB",
    "NORAD_CAT_ID": "138",
    "OBJECT_TYPE": "DEBRIS",
    "PERIOD": "102.767",
    "INCLINATION": "67.1531",
    "APOGEE": "908.926",
    "PERIGEE": "870.240",
    "ECCENTRICITY": "0.0026615",
    "MEAN_MOTION": "14.01217658",
    "TLE_LINE1": "1 00138U 61015Y   16239.44310189  .00000126  00000-0  13373-3 0  9995",
    "TLE_LINE2": "2 00138  67.1531 246.9948 0026615  31.2740 328.9924 14.01217658801074"
  },
  {
    "OBJECT_ID": "1961-015AB",
    "OBJECT_NAME": "THOR ABLESTAR DEB",
    "NORAD_CAT_ID": "141",
    "OBJECT_TYPE": "DEBRIS",
    "PERIOD": "103.859",
    "INCLINATION": "66.5893",
    "APOGEE": "986.503",
    "PERIGEE": "895.401",
    "ECCENTRICITY": "0.0062236",
    "MEAN_MOTION": "13.86492042",
    "TLE_LINE1": "1 00141U 61015AB  16239.18742512 -.00000033  00000-0  38011-4 0  9994",
    "TLE_LINE2": "2 00141  66.5893 173.0047 0062236 228.7381 130.8323 13.86492042775319"
  }
]
